[
    {
        "CCSDS_OMM_VERS": "3.0",
        "COMMENT": "GENERATED VIA SPACE-TRACK.ORG API",
        "CREATION_DATE": "2025-05-03T17:28:03",
        "ORIGINATOR": "18 SPCS",
        "OBJECT_NAME": "COSMOS 2460 (GLONASS)",
        "OBJECT_ID": "2010-007C",
        "CENTER_NAME": "EARTH",
        "REF_FRAME": "TEME",
        "TIME_SYSTEM": "UTC",
        "MEAN_ELEMENT_THEORY": "SGP4",
        "EPOCH": "2025-05-03T05:59:13.687872",
        "MEAN_MOTION": "2.13106193",
        "ECCENTRICITY": "0.00022590",
        "INCLINATION": "65.6478",
        "RA_OF_ASC_NODE": "328.3058",
        "ARG_OF_PERICENTER": "61.9045",
        "MEAN_ANOMALY": "109.6833",
        "EPHEMERIS_TYPE": "0",
        "CLASSIFICATION_TYPE": "U",
        "NORAD_CAT_ID": "36402",
        "ELEMENT_SET_NO": "999",
        "REV_AT_EPOCH": "11799",
        "BSTAR": "0.00000000000000",
        "MEAN_MOTION_DOT": "-0.00000049",
        "MEAN_MOTION_DDOT": "0.0000000000000",
        "SEMIMAJOR_AXIS": "25507.690",
        "PERIOD": "675.719",
        "APOAPSIS": "19135.317",
        "PERIAPSIS": "19123.793",
        "OBJECT_TYPE": "PAYLOAD",
        "RCS_SIZE": "LARGE",
        "COUNTRY_CODE": "CIS",
        "LAUNCH_DATE": "2010-03-01",
        "SITE": "TTMTR",
        "DECAY_DATE": null,
        "FILE": "4717971",
        "GP_ID": "286757965",
        "TLE_LINE0": "0 COSMOS 2460 (GLONASS)",
        "TLE_LINE1": "1 36402U 10007C   25123.24946398 -.00000049  00000-0  00000-0 0  9995",
        "TLE_LINE2": "2 36402  65.6478 328.3058 0002259  61.9045 109.6833  2.13106193117998"
    }
]